start=new Date('2023-01-06T00:00:00.000Z').valueOf();
sats=[{"INCLINATION":"53.2152","TLE_LINE2":"2 54102  53.2152 136.2610 0001714  51.4695 308.6450 15.08855274 12031","TIME_SYSTEM":"UTC","ARG_OF_PERICENTER":"51.4695","FILE":"3732963","REV_AT_EPOCH":"1203","OBJECT_ID":"2022-136BD","EPOCH":"2023-01-05T18:41:26.312064","MEAN_ELEMENT_THEORY":"SGP4","DECAY_DATE":null,"LAUNCH_DATE":"2022-10-20","SEMIMAJOR_AXIS":"6917.834","RA_OF_ASC_NODE":"136.2610","OBJECT_NAME":"STARLINK-5179","MEAN_ANOMALY":"308.6450","NORAD_CAT_ID":"54102","MEAN_MOTION_DOT":"0.00002883","SITE":"AFETR","TLE_LINE1":"1 54102U 22136BD  23005.77877676  .00002883  00000-0  19911-3 0  9996","MEAN_MOTION_DDOT":"0.0000000000000","EPHEMERIS_TYPE":"0","OBJECT_TYPE":"PAYLOAD","MEAN_MOTION":"15.08855274","APOAPSIS":"540.884","COUNTRY_CODE":"US","ECCENTRICITY":"0.00017140","PERIOD":"95.437","PERIAPSIS":"538.513","RCS_SIZE":"LARGE","CLASSIFICATION_TYPE":"U","BSTAR":"0.00019911000000","ELEMENT_SET_NO":"999","CENTER_NAME":"EARTH","REF_FRAME":"TEME","GP_ID":"222292459"},{"TLE_LINE2":"2 54103  53.2150 127.6525 0005539 345.7257  14.3606 15.73252714 12127","INCLINATION":"53.2150","OBJECT_ID":"2022-136BE","REV_AT_EPOCH":"1212","FILE":"3732939","ARG_OF_PERICENTER":"345.7257","TIME_SYSTEM":"UTC","MEAN_ANOMALY":"14.3606","OBJECT_NAME":"STARLINK-5200","SEMIMAJOR_AXIS":"6727.745","LAUNCH_DATE":"2022-10-20","RA_OF_ASC_NODE":"127.6525","DECAY_DATE":null,"MEAN_ELEMENT_THEORY":"SGP4","EPOCH":"2023-01-05T10:31:44.119776","MEAN_MOTION_DDOT":"0.0000000000000","TLE_LINE1":"1 54103U 22136BE  23005.43870509  .00006283  00000-0  49054-4 0  9998","SITE":"AFETR","MEAN_MOTION_DOT":"0.00006283","NORAD_CAT_ID":"54103","COUNTRY_CODE":"US","APOAPSIS":"353.336","MEAN_MOTION":"15.73252714","EPHEMERIS_TYPE":"0","OBJECT_TYPE":"PAYLOAD","PERIAPSIS":"345.883","PERIOD":"91.530","ECCENTRICITY":"0.00055390","CLASSIFICATION_TYPE":"U","RCS_SIZE":"LARGE","GP_ID":"222265777","REF_FRAME":"TEME","CENTER_NAME":"EARTH","ELEMENT_SET_NO":"999","BSTAR":"0.00004905400000"},{"REV_AT_EPOCH":"1211","OBJECT_ID":"2022-136BF","TIME_SYSTEM":"UTC","FILE":"3732939","ARG_OF_PERICENTER":"7.2255","INCLINATION":"53.2158","TLE_LINE2":"2 54104  53.2158 127.9720 0004440   7.2255 352.8828 15.73280499 12110","MEAN_MOTION_DOT":"0.00023293","NORAD_CAT_ID":"54104","TLE_LINE1":"1 54104U 22136BF  23005.37506975  .00023293  00000-0  16929-3 0  9999","MEAN_MOTION_DDOT":"0.0000000000000","SITE":"AFETR","EPOCH":"2023-01-05T09:00:06.026400","MEAN_ELEMENT_THEORY":"SGP4","DECAY_DATE":null,"MEAN_ANOMALY":"352.8828","LAUNCH_DATE":"2022-10-20","SEMIMAJOR_AXIS":"6727.666","RA_OF_ASC_NODE":"127.9720","OBJECT_NAME":"STARLINK-5203","ECCENTRICITY":"0.00044400","PERIOD":"91.528","PERIAPSIS":"346.544","OBJECT_TYPE":"PAYLOAD","EPHEMERIS_TYPE":"0","COUNTRY_CODE":"US","MEAN_MOTION":"15.73280499","APOAPSIS":"352.518","CENTER_NAME":"EARTH","REF_FRAME":"TEME","ELEMENT_SET_NO":"999","BSTAR":"0.00016929000000","GP_ID":"222266007","CLASSIFICATION_TYPE":"U","RCS_SIZE":"LARGE"},{"ECCENTRICITY":"0.00019900","PERIAPSIS":"538.332","PERIOD":"95.437","OBJECT_TYPE":"PAYLOAD","EPHEMERIS_TYPE":"0","COUNTRY_CODE":"US","APOAPSIS":"541.085","MEAN_MOTION":"15.08852106","REF_FRAME":"TEME","CENTER_NAME":"EARTH","BSTAR":"0.00010976000000","ELEMENT_SET_NO":"999","GP_ID":"222291533","CLASSIFICATION_TYPE":"U","RCS_SIZE":"LARGE","OBJECT_ID":"2022-141A","REV_AT_EPOCH":"1075","FILE":"3732963","ARG_OF_PERICENTER":"61.6896","TIME_SYSTEM":"UTC","TLE_LINE2":"2 54157  53.2159 176.9292 0001990  61.6896 298.4296 15.08852106 10759","INCLINATION":"53.2159","MEAN_MOTION_DOT":"0.00001460","NORAD_CAT_ID":"54157","MEAN_MOTION_DDOT":"0.0000000000000","TLE_LINE1":"1 54157U 22141A   23005.73468021  .00001460  00000-0  10976-3 0  9990","SITE":"AFWTR","DECAY_DATE":null,"MEAN_ELEMENT_THEORY":"SGP4","EPOCH":"2023-01-05T17:37:56.370144","MEAN_ANOMALY":"298.4296","OBJECT_NAME":"STARLINK-5290","RA_OF_ASC_NODE":"176.9292","LAUNCH_DATE":"2022-10-28","SEMIMAJOR_AXIS":"6917.843"},{"INCLINATION":"53.2161","TLE_LINE2":"2 54158  53.2161 177.8641 0001892  55.5743 304.5428 15.08850813 10721","REV_AT_EPOCH":"1072","OBJECT_ID":"2022-141B","TIME_SYSTEM":"UTC","FILE":"3732939","ARG_OF_PERICENTER":"55.5743","EPOCH":"2023-01-05T13:02:23.976384","MEAN_ELEMENT_THEORY":"SGP4","DECAY_DATE":null,"MEAN_ANOMALY":"304.5428","LAUNCH_DATE":"2022-10-28","SEMIMAJOR_AXIS":"6917.847","RA_OF_ASC_NODE":"177.8641","OBJECT_NAME":"STARLINK-5297","MEAN_MOTION_DOT":"0.00000787","NORAD_CAT_ID":"54158","TLE_LINE1":"1 54158U 22141B   23005.54333306  .00000787  00000-0  67553-4 0  9992","MEAN_MOTION_DDOT":"0.0000000000000","SITE":"AFWTR","EPHEMERIS_TYPE":"0","OBJECT_TYPE":"PAYLOAD","COUNTRY_CODE":"US","MEAN_MOTION":"15.08850813","APOAPSIS":"541.021","ECCENTRICITY":"0.00018920","PERIOD":"95.437","PERIAPSIS":"538.403","CLASSIFICATION_TYPE":"U","RCS_SIZE":"LARGE","CENTER_NAME":"EARTH","REF_FRAME":"TEME","ELEMENT_SET_NO":"999","BSTAR":"0.00006755300000","GP_ID":"222264847"},{"DECAY_DATE":null,"EPOCH":"2023-01-05T13:51:24.944256","MEAN_ELEMENT_THEORY":"SGP4","OBJECT_NAME":"STARLINK-5294","RA_OF_ASC_NODE":"177.3771","LAUNCH_DATE":"2022-10-28","SEMIMAJOR_AXIS":"6917.866","MEAN_ANOMALY":"262.2557","NORAD_CAT_ID":"54159","MEAN_MOTION_DOT":"0.00001208","SITE":"AFWTR","MEAN_MOTION_DDOT":"0.0000000000000","TLE_LINE1":"1 54159U 22141C   23005.57737204  .00001208  00000-0  93964-4 0  9995","TLE_LINE2":"2 54159  53.2174 177.3771 0001027  97.8552 262.2557 15.08844727 10733","INCLINATION":"53.2174","ARG_OF_PERICENTER":"97.8552","FILE":"3732963","TIME_SYSTEM":"UTC","OBJECT_ID":"2022-141C","REV_AT_EPOCH":"1073","RCS_SIZE":"LARGE","CLASSIFICATION_TYPE":"U","ELEMENT_SET_NO":"999","BSTAR":"0.00009396400000","REF_FRAME":"TEME","CENTER_NAME":"EARTH","GP_ID":"222292465","OBJECT_TYPE":"PAYLOAD","EPHEMERIS_TYPE":"0","APOAPSIS":"540.441","MEAN_MOTION":"15.08844727","COUNTRY_CODE":"US","ECCENTRICITY":"0.00010270","PERIAPSIS":"539.020","PERIOD":"95.437"},{"OBJECT_TYPE":"PAYLOAD","EPHEMERIS_TYPE":"0","APOAPSIS":"352.427","MEAN_MOTION":"15.73249621","COUNTRY_CODE":"US","ECCENTRICITY":"0.00041740","PERIAPSIS":"346.811","PERIOD":"91.530","RCS_SIZE":"LARGE","CLASSIFICATION_TYPE":"U","ELEMENT_SET_NO":"999","BSTAR":"0.00007220600000","REF_FRAME":"TEME","CENTER_NAME":"EARTH","GP_ID":"222265783","TLE_LINE2":"2 54160  53.2136 159.9626 0004174 358.2431   1.8574 15.73249621 10970","INCLINATION":"53.2136","ARG_OF_PERICENTER":"358.2431","FILE":"3732939","TIME_SYSTEM":"UTC","OBJECT_ID":"2022-141D","REV_AT_EPOCH":"1097","DECAY_DATE":null,"EPOCH":"2023-01-05T12:54:44.983296","MEAN_ELEMENT_THEORY":"SGP4","OBJECT_NAME":"STARLINK-5233","LAUNCH_DATE":"2022-10-28","RA_OF_ASC_NODE":"159.9626","SEMIMAJOR_AXIS":"6727.754","MEAN_ANOMALY":"1.8574","NORAD_CAT_ID":"54160","MEAN_MOTION_DOT":"0.00009546","SITE":"AFWTR","MEAN_MOTION_DDOT":"0.0000000000000","TLE_LINE1":"1 54160U 22141D   23005.53802064  .00009546  00000-0  72206-4 0  9999"},{"MEAN_MOTION_DOT":"0.00000956","NORAD_CAT_ID":"54161","MEAN_MOTION_DDOT":"0.0000000000000","TLE_LINE1":"1 54161U 22141E   23005.73836471  .00000956  00000-0  78166-4 0  9998","SITE":"AFWTR","DECAY_DATE":null,"MEAN_ELEMENT_THEORY":"SGP4","EPOCH":"2023-01-05T17:43:14.710944","MEAN_ANOMALY":"310.7411","OBJECT_NAME":"STARLINK-5269","SEMIMAJOR_AXIS":"6917.843","LAUNCH_DATE":"2022-10-28","RA_OF_ASC_NODE":"176.9500","OBJECT_ID":"2022-141E","REV_AT_EPOCH":"1075","ARG_OF_PERICENTER":"49.3758","FILE":"3732963","TIME_SYSTEM":"UTC","TLE_LINE2":"2 54161  53.2166 176.9500 0002033  49.3758 310.7411 15.08852291 10755","INCLINATION":"53.2166","REF_FRAME":"TEME","CENTER_NAME":"EARTH","BSTAR":"0.00007816600000","ELEMENT_SET_NO":"999","GP_ID":"222292005","CLASSIFICATION_TYPE":"U","RCS_SIZE":"LARGE","ECCENTRICITY":"0.00020330","PERIAPSIS":"538.301","PERIOD":"95.437","OBJECT_TYPE":"PAYLOAD","EPHEMERIS_TYPE":"0","COUNTRY_CODE":"US","APOAPSIS":"541.114","MEAN_MOTION":"15.08852291"},{"CLASSIFICATION_TYPE":"U","RCS_SIZE":"LARGE","GP_ID":"222292698","REF_FRAME":"TEME","CENTER_NAME":"EARTH","BSTAR":"0.00010073000000","ELEMENT_SET_NO":"999","COUNTRY_CODE":"US","APOAPSIS":"540.848","MEAN_MOTION":"15.08848342","EPHEMERIS_TYPE":"0","OBJECT_TYPE":"PAYLOAD","PERIAPSIS":"538.592","PERIOD":"95.437","ECCENTRICITY":"0.00016300","MEAN_ANOMALY":"297.5965","OBJECT_NAME":"STARLINK-5273","LAUNCH_DATE":"2022-10-28","RA_OF_ASC_NODE":"176.9078","SEMIMAJOR_AXIS":"6917.855","DECAY_DATE":null,"EPOCH":"2023-01-05T17:32:37.990464","MEAN_ELEMENT_THEORY":"SGP4","MEAN_MOTION_DDOT":"0.0000000000000","TLE_LINE1":"1 54162U 22141F   23005.73099526  .00001316  00000-0  10073-3 0  9994","SITE":"AFWTR","MEAN_MOTION_DOT":"0.00001316","NORAD_CAT_ID":"54162","TLE_LINE2":"2 54162  53.2180 176.9078 0001630  62.5193 297.5965 15.08848342 10752","INCLINATION":"53.2180","OBJECT_ID":"2022-141F","REV_AT_EPOCH":"1075","ARG_OF_PERICENTER":"62.5193","FILE":"3732963","TIME_SYSTEM":"UTC"},{"RCS_SIZE":"LARGE","CLASSIFICATION_TYPE":"U","GP_ID":"222292926","BSTAR":"0.00022601000000","ELEMENT_SET_NO":"999","CENTER_NAME":"EARTH","REF_FRAME":"TEME","MEAN_MOTION":"15.08851978","APOAPSIS":"540.674","COUNTRY_CODE":"US","EPHEMERIS_TYPE":"0","OBJECT_TYPE":"PAYLOAD","PERIOD":"95.437","PERIAPSIS":"538.744","ECCENTRICITY":"0.00013950","SEMIMAJOR_AXIS":"6917.844","LAUNCH_DATE":"2022-10-28","RA_OF_ASC_NODE":"167.0001","OBJECT_NAME":"STARLINK-5161","MEAN_ANOMALY":"300.0468","MEAN_ELEMENT_THEORY":"SGP4","EPOCH":"2023-01-05T17:49:54.396480","DECAY_DATE":null,"SITE":"AFWTR","TLE_LINE1":"1 54163U 22141G   23005.74299070  .00003312  00000-0  22601-3 0  9990","MEAN_MOTION_DDOT":"0.0000000000000","NORAD_CAT_ID":"54163","MEAN_MOTION_DOT":"0.00003312","INCLINATION":"53.2150","TLE_LINE2":"2 54163  53.2150 167.0001 0001395  60.0663 300.0468 15.08851978 10892","TIME_SYSTEM":"UTC","ARG_OF_PERICENTER":"60.0663","FILE":"3732963","REV_AT_EPOCH":"1089","OBJECT_ID":"2022-141G"}];
